0 METEOR 2-8 DEB
1 36356U 82025AS  13280.81877064  .00001193  00000-0  73310-3 0  1202
2 36356 082.5291 097.9543 0022254 227.7363 132.2322 14.04786397286431
0 METEOR 2-8 DEB
1 36356U 82025AS  13281.81592910  .00001208  00000-0  74279-3 0  1210
2 36356 082.5293 097.1322 0022572 225.5426 134.4115 14.04789393286577
0 METEOR 2-8 DEB
1 36356U 82025AS  13289.79319442  .00001695  00000-0  10464-2 0  1228
2 36356 082.5148 090.5470 0017189 214.9655 145.3658 14.04823422287690
0 METEOR 2-8 DEB
1 36356U 82025AS  13293.78167351  .00001825  00000-0  11268-2 0  1231
2 36356 082.5107 087.2465 0015813 207.2648 152.9059 14.04841619288251
